{
  "type": "FeatureCollection",
  "features": [
    {
      "type": "Feature",
      "properties": {
        "norad_id": 24946,
        "name": "IRIDIUM 33",
        "group": "iridium-33-debris",
        "lat": 6.923850074958385,
        "lon": -112.4814946000237,
        "alt_km": 772.477422138878,
        "timestamp": "2025-12-13T08:49:16.076488+00:00",
        "meta_object_name": "IRIDIUM 33",
        "meta_object_id": "1997-051C",
        "meta_epoch": "2025-12-12T23:39:00.061632",
        "meta_mean_motion": 14.35037861,
        "meta_eccentricity": 0.00070528,
        "meta_inclination": 86.3869,
        "meta_ra_of_asc_node": 68.1185,
        "meta_arg_of_pericenter": 199.357,
        "meta_mean_anomaly": 160.7359,
        "meta_ephemeris_type": 0,
        "meta_classification_type": "U",
        "meta_norad_cat_id": 24946,
        "meta_element_set_no": 999,
        "meta_rev_at_epoch": 47838,
        "meta_bstar": 0.00018471148,
        "meta_mean_motion_dot": 5.46e-06,
        "meta_mean_motion_ddot": 0,
        "tle_line1": "1 24946U 97051C   25346.98541738  .00000546  00000+0  18471-3 0  9990",
        "tle_line2": "2 24946  86.3869  68.1185 0007052 199.3570 160.7359 14.35037861478383"
      },
      "geometry": {
        "type": "Point",
        "coordinates": [
          -112.4814946000237,
          6.923850074958385
        ]
      }
    },
    {
      "type": "Feature",
      "properties": {
        "norad_id": 33773,
        "name": "IRIDIUM 33 DEB",
        "group": "iridium-33-debris",
        "lat": 31.297794709393305,
        "lon": -121.86958548120606,
        "alt_km": 737.2213023103977,
        "timestamp": "2025-12-13T08:49:16.076513+00:00",
        "meta_object_name": "IRIDIUM 33 DEB",
        "meta_object_id": "1997-051L",
        "meta_epoch": "2025-12-12T18:49:25.822560",
        "meta_mean_motion": 14.43257745,
        "meta_eccentricity": 0.00124824,
        "meta_inclination": 86.4008,
        "meta_ra_of_asc_node": 60.5705,
        "meta_arg_of_pericenter": 146.2466,
        "meta_mean_anomaly": 213.9532,
        "meta_ephemeris_type": 0,
        "meta_classification_type": "U",
        "meta_norad_cat_id": 33773,
        "meta_element_set_no": 999,
        "meta_rev_at_epoch": 88348,
        "meta_bstar": 0.00050017658,
        "meta_mean_motion_dot": 1.704e-05,
        "meta_mean_motion_ddot": 0,
        "tle_line1": "1 33773U 97051L   25346.78432665  .00001704  00000+0  50018-3 0  9994",
        "tle_line2": "2 33773  86.4008  60.5705 0012482 146.2466 213.9532 14.43257745883488"
      },
      "geometry": {
        "type": "Point",
        "coordinates": [
          -121.86958548120606,
          31.297794709393305
        ]
      }
    },
    {
      "type": "Feature",
      "properties": {
        "norad_id": 33775,
        "name": "IRIDIUM 33 DEB",
        "group": "iridium-33-debris",
        "lat": -48.110526829835486,
        "lon": -126.64859796203206,
        "alt_km": 758.0287514817146,
        "timestamp": "2025-12-13T08:49:16.076529+00:00",
        "meta_object_name": "IRIDIUM 33 DEB",
        "meta_object_id": "1997-051N",
        "meta_epoch": "2025-12-12T15:40:06.507840",
        "meta_mean_motion": 14.41468648,
        "meta_eccentricity": 0.00142791,
        "meta_inclination": 86.3638,
        "meta_ra_of_asc_node": 49.5908,
        "meta_arg_of_pericenter": 154.8579,
        "meta_mean_anomaly": 326.7403,
        "meta_ephemeris_type": 0,
        "meta_classification_type": "U",
        "meta_norad_cat_id": 33775,
        "meta_element_set_no": 999,
        "meta_rev_at_epoch": 88139,
        "meta_bstar": 0.00050925625,
        "meta_mean_motion_dot": 1.673e-05,
        "meta_mean_motion_ddot": 0,
        "tle_line1": "1 33775U 97051N   25346.65285310  .00001673  00000+0  50926-3 0  9998",
        "tle_line2": "2 33775  86.3638  49.5908 0014279 154.8579 326.7403 14.41468648881398"
      },
      "geometry": {
        "type": "Point",
        "coordinates": [
          -126.64859796203206,
          -48.110526829835486
        ]
      }
    },
    {
      "type": "Feature",
      "properties": {
        "norad_id": 33776,
        "name": "IRIDIUM 33 DEB",
        "group": "iridium-33-debris",
        "lat": 86.39443943452737,
        "lon": 174.07145784798297,
        "alt_km": 758.2793824926284,
        "timestamp": "2025-12-13T08:49:16.076541+00:00",
        "meta_object_name": "IRIDIUM 33 DEB",
        "meta_object_id": "1997-051P",
        "meta_epoch": "2025-12-13T00:51:23.971104",
        "meta_mean_motion": 14.38235979,
        "meta_eccentricity": 0.00143725,
        "meta_inclination": 86.4037,
        "meta_ra_of_asc_node": 80.6516,
        "meta_arg_of_pericenter": 189.3771,
        "meta_mean_anomaly": 343.8799,
        "meta_ephemeris_type": 0,
        "meta_classification_type": "U",
        "meta_norad_cat_id": 33776,
        "meta_element_set_no": 999,
        "meta_rev_at_epoch": 88086,
        "meta_bstar": 0.00044397414,
        "meta_mean_motion_dot": 1.369e-05,
        "meta_mean_motion_ddot": 0,
        "tle_line1": "1 33776U 97051P   25347.03569411  .00001369  00000+0  44397-3 0  9996",
        "tle_line2": "2 33776  86.4037  80.6516 0014372 189.3771 343.8799 14.38235979880869"
      },
      "geometry": {
        "type": "Point",
        "coordinates": [
          174.07145784798297,
          86.39443943452737
        ]
      }
    },
    {
      "type": "Feature",
      "properties": {
        "norad_id": 33777,
        "name": "IRIDIUM 33 DEB",
        "group": "iridium-33-debris",
        "lat": -81.83691092153587,
        "lon": 8.731305395888615,
        "alt_km": 711.631485394887,
        "timestamp": "2025-12-13T08:49:16.076553+00:00",
        "meta_object_name": "IRIDIUM 33 DEB",
        "meta_object_id": "1997-051Q",
        "meta_epoch": "2025-12-12T15:03:07.539840",
        "meta_mean_motion": 14.55614402,
        "meta_eccentricity": 0.00051663,
        "meta_inclination": 86.3787,
        "meta_ra_of_asc_node": 35.2523,
        "meta_arg_of_pericenter": 249.4756,
        "meta_mean_anomaly": 110.5898,
        "meta_ephemeris_type": 0,
        "meta_classification_type": "U",
        "meta_norad_cat_id": 33777,
        "meta_element_set_no": 999,
        "meta_rev_at_epoch": 88532,
        "meta_bstar": 0.0013413038,
        "meta_mean_motion_dot": 5.872e-05,
        "meta_mean_motion_ddot": 0,
        "tle_line1": "1 33777U 97051Q   25346.62717060  .00005872  00000+0  13413-2 0  9993",
        "tle_line2": "2 33777  86.3787  35.2523 0005166 249.4756 110.5898 14.55614402885323"
      },
      "geometry": {
        "type": "Point",
        "coordinates": [
          8.731305395888615,
          -81.83691092153587
        ]
      }
    },
    {
      "type": "Feature",
      "properties": {
        "norad_id": 33850,
        "name": "IRIDIUM 33 DEB",
        "group": "iridium-33-debris",
        "lat": -30.576803227760536,
        "lon": -147.92374978890157,
        "alt_km": 752.0418816655447,
        "timestamp": "2025-12-13T08:49:16.076565+00:00",
        "meta_object_name": "IRIDIUM 33 DEB",
        "meta_object_id": "1997-051T",
        "meta_epoch": "2025-12-12T20:59:36.113856",
        "meta_mean_motion": 14.42146738,
        "meta_eccentricity": 0.0012262,
        "meta_inclination": 86.3417,
        "meta_ra_of_asc_node": 30.1217,
        "meta_arg_of_pericenter": 160.5647,
        "meta_mean_anomaly": 12.8828,
        "meta_ephemeris_type": 0,
        "meta_classification_type": "U",
        "meta_norad_cat_id": 33850,
        "meta_element_set_no": 999,
        "meta_rev_at_epoch": 88154,
        "meta_bstar": 0.00044923217,
        "meta_mean_motion_dot": 1.498e-05,
        "meta_mean_motion_ddot": 0,
        "tle_line1": "1 33850U 97051T   25346.87472354  .00001498  00000+0  44923-3 0  9997",
        "tle_line2": "2 33850  86.3417  30.1217 0012262 160.5647  12.8828 14.42146738881541"
      },
      "geometry": {
        "type": "Point",
        "coordinates": [
          -147.92374978890157,
          -30.576803227760536
        ]
      }
    },
    {
      "type": "Feature",
      "properties": {
        "norad_id": 33853,
        "name": "IRIDIUM 33 DEB",
        "group": "iridium-33-debris",
        "lat": 45.87151010505158,
        "lon": 165.3998842633357,
        "alt_km": 916.1336911288827,
        "timestamp": "2025-12-13T08:49:16.076578+00:00",
        "meta_object_name": "IRIDIUM 33 DEB",
        "meta_object_id": "1997-051W",
        "meta_epoch": "2025-12-12T23:43:16.203072",
        "meta_mean_motion": 13.99064689,
        "meta_eccentricity": 0.02070018,
        "meta_inclination": 86,
        "meta_ra_of_asc_node": 349.7025,
        "meta_arg_of_pericenter": 235.0402,
        "meta_mean_anomaly": 152.6554,
        "meta_ephemeris_type": 0,
        "meta_classification_type": "U",
        "meta_norad_cat_id": 33853,
        "meta_element_set_no": 999,
        "meta_rev_at_epoch": 85349,
        "meta_bstar": 0.0026505362,
        "meta_mean_motion_dot": 4.623e-05,
        "meta_mean_motion_ddot": 0,
        "tle_line1": "1 33853U 97051W   25346.98838198  .00004623  00000+0  26505-2 0  9992",
        "tle_line2": "2 33853  86.0000 349.7025 0207001 235.0402 152.6554 13.99064689853496"
      },
      "geometry": {
        "type": "Point",
        "coordinates": [
          165.3998842633357,
          45.87151010505158
        ]
      }
    }
  ]
}